{
  "norad_id": 45675,
  "name": "STARLINK-1458",
  "history": [
    {
      "epoch": "2026-04-17T15:57:05.792832Z",
      "apogee_km": 423.31270678630426,
      "perigee_km": 416.666586251602,
      "latitude_deg": 4.126104018970101e-05,
      "longitude_deg": 144.59384233768793,
      "height_km": 421.1065827716812,
      "semi_major_axis_km": 6798.126646518953,
      "eccentricity": 0.00048882,
      "inclination_deg": 53.0496,
      "raan_deg": 229.6627,
      "arg_perigee_deg": 266.2434,
      "mean_anomaly_deg": 93.8015,
      "mean_motion_rev_day": 15.48883971
    },
    {
      "epoch": "2026-04-18T13:37:53.440032Z",
      "apogee_km": 423.03122374626673,
      "perigee_km": 416.29324514508426,
      "latitude_deg": 6.413431811202942e-06,
      "longitude_deg": 174.17782471705377,
      "height_km": 420.43441098870807,
      "semi_major_axis_km": 6797.799234445675,
      "eccentricity": 0.0004956,
      "inclination_deg": 53.0509,
      "raan_deg": 225.3356,
      "arg_perigee_deg": 272.165,
      "mean_anomaly_deg": 87.879,
      "mean_motion_rev_day": 15.48995874
    },
    {
      "epoch": "2026-04-19T14:24:25.760160Z",
      "apogee_km": 423.0300402521734,
      "perigee_km": 415.8681035668087,
      "latitude_deg": 4.368529579447069e-05,
      "longitude_deg": 156.57978507562126,
      "height_km": 419.95063127622603,
      "semi_major_axis_km": 6797.586071909491,
      "eccentricity": 0.0005268,
      "inclination_deg": 53.049,
      "raan_deg": 220.3897,
      "arg_perigee_deg": 276.3789,
      "mean_anomaly_deg": 83.6619,
      "mean_motion_rev_day": 15.49068736
    },
    {
      "epoch": "2026-04-20T13:37:56.683488Z",
      "apogee_km": 422.5065838009814,
      "perigee_km": 415.5557996081434,
      "latitude_deg": -3.055090333174631e-06,
      "longitude_deg": 162.60937376305188,
      "height_km": 419.16033865436106,
      "semi_major_axis_km": 6797.168191704562,
      "eccentricity": 0.0005113,
      "inclination_deg": 53.0488,
      "raan_deg": 215.752,
      "arg_perigee_deg": 282.8037,
      "mean_anomaly_deg": 77.2399,
      "mean_motion_rev_day": 15.4921159
    },
    {
      "epoch": "2026-04-21T14:24:13.114656Z",
      "apogee_km": 422.280910281037,
      "perigee_km": 414.84939614671293,
      "latitude_deg": 1.6627009504647632e-06,
      "longitude_deg": 145.07599326198905,
      "height_km": 418.27314289454745,
      "semi_major_axis_km": 6796.702153213875,
      "eccentricity": 0.0005467,
      "inclination_deg": 53.0488,
      "raan_deg": 210.8044,
      "arg_perigee_deg": 288.7031,
      "mean_anomaly_deg": 71.3383,
      "mean_motion_rev_day": 15.49370933
    },
    {
      "epoch": "2026-04-22T13:37:28.759008Z",
      "apogee_km": 421.84286665214495,
      "perigee_km": 414.60338384672923,
      "latitude_deg": -1.5183108014805569e-05,
      "longitude_deg": 151.16724034518236,
      "height_km": 417.75673325381734,
      "semi_major_axis_km": 6796.360125249436,
      "eccentricity": 0.0005326,
      "inclination_deg": 53.0491,
      "raan_deg": 206.1645,
      "arg_perigee_deg": 292.1686,
      "mean_anomaly_deg": 67.8756,
      "mean_motion_rev_day": 15.49487893
    },
    {
      "epoch": "2026-04-23T12:50:37.912128Z",
      "apogee_km": 429.7018842387606,
      "perigee_km": 406.714470019253,
      "latitude_deg": 9.737548665914646e-06,
      "longitude_deg": 157.28553994701687,
      "height_km": 414.8256690939602,
      "semi_major_axis_km": 6796.3451771290065,
      "eccentricity": 0.00169116,
      "inclination_deg": 53.05,
      "raan_deg": 201.5245,
      "arg_perigee_deg": 291.8618,
      "mean_anomaly_deg": 68.0591,
      "mean_motion_rev_day": 15.49493005
    },
    {
      "epoch": "2026-04-24T13:36:30.451968Z",
      "apogee_km": 421.1931494175069,
      "perigee_km": 413.59982030152514,
      "latitude_deg": 6.254089114953071e-05,
      "longitude_deg": 139.8526163555982,
      "height_km": 416.1760077572194,
      "semi_major_axis_km": 6795.533484859516,
      "eccentricity": 0.0005587,
      "inclination_deg": 53.0488,
      "raan_deg": 196.5775,
      "arg_perigee_deg": 303.9416,
      "mean_anomaly_deg": 56.1061,
      "mean_motion_rev_day": 15.49770632
    },
    {
      "epoch": "2026-04-25T12:49:24.727008Z",
      "apogee_km": 420.94574922081574,
      "perigee_km": 413.1571042460937,
      "latitude_deg": -2.7498909903622578e-05,
      "longitude_deg": 146.03269327268032,
      "height_km": 415.490057096152,
      "semi_major_axis_km": 6795.188426733454,
      "eccentricity": 0.0005731,
      "inclination_deg": 53.0494,
      "raan_deg": 191.9372,
      "arg_perigee_deg": 309.1893,
      "mean_anomaly_deg": 50.8605,
      "mean_motion_rev_day": 15.49888679
    },
    {
      "epoch": "2026-04-26T12:02:11.321952Z",
      "apogee_km": 420.4934776579439,
      "perigee_km": 412.7285755081257,
      "latitude_deg": -4.221168131504591e-05,
      "longitude_deg": 152.2428152224091,
      "height_km": 415.0454631929174,
      "semi_major_axis_km": 6794.7480265830345,
      "eccentricity": 0.00057139,
      "inclination_deg": 53.0487,
      "raan_deg": 187.2948,
      "arg_perigee_deg": 309.4117,
      "mean_anomaly_deg": 50.6384,
      "mean_motion_rev_day": 15.50039365
    },
    {
      "epoch": "2026-04-27T11:14:49.574112Z",
      "apogee_km": 420.15322512328294,
      "perigee_km": 412.07757671954823,
      "latitude_deg": -4.98532078885649e-05,
      "longitude_deg": 158.49049964703323,
      "height_km": 414.0521857572948,
      "semi_major_axis_km": 6794.252400921416,
      "eccentricity": 0.0005943,
      "inclination_deg": 53.0492,
      "raan_deg": 182.6551,
      "arg_perigee_deg": 317.1958,
      "mean_anomaly_deg": 42.8586,
      "mean_motion_rev_day": 15.50208976
    },
    {
      "epoch": "2026-04-28T15:05:46.629024Z",
      "apogee_km": 419.6000504651129,
      "perigee_km": 411.38111981261227,
      "latitude_deg": 4.4148877030367334e-05,
      "longitude_deg": 94.0368167833829,
      "height_km": 413.0801325573005,
      "semi_major_axis_km": 6793.627585138863,
      "eccentricity": 0.0006049,
      "inclination_deg": 53.0493,
      "raan_deg": 177.0828,
      "arg_perigee_deg": 323.6426,
      "mean_anomaly_deg": 36.4171,
      "mean_motion_rev_day": 15.50422842
    },
    {
      "epoch": "2026-04-29T20:29:19.876992Z",
      "apogee_km": 419.137147196504,
      "perigee_km": 410.7137497603908,
      "latitude_deg": -2.5998890876946656e-05,
      "longitude_deg": 6.061321680940511,
      "height_km": 412.2145375328515,
      "semi_major_axis_km": 6793.062448478447,
      "eccentricity": 0.00062,
      "inclination_deg": 53.0486,
      "raan_deg": 171.203,
      "arg_perigee_deg": 328.988,
      "mean_anomaly_deg": 31.0761,
      "mean_motion_rev_day": 15.50616323
    },
    {
      "epoch": "2026-04-30T11:57:26.113824Z",
      "apogee_km": 418.9023877372056,
      "perigee_km": 410.4498186803594,
      "latitude_deg": 1.793385640682591e-05,
      "longitude_deg": 130.30400296968713,
      "height_km": 411.9324128947808,
      "semi_major_axis_km": 6792.813103208782,
      "eccentricity": 0.00062217,
      "inclination_deg": 53.0476,
      "raan_deg": 168.1069,
      "arg_perigee_deg": 329.5229,
      "mean_anomaly_deg": 30.5417,
      "mean_motion_rev_day": 15.50701702
    },
    {
      "epoch": "2026-05-02T08:48:36.465408Z",
      "apogee_km": 418.2518709374117,
      "perigee_km": 409.3517143435356,
      "latitude_deg": 3.685539657188303e-05,
      "longitude_deg": 166.68484098621727,
      "height_km": 410.5563962779223,
      "semi_major_axis_km": 6791.938792640473,
      "eccentricity": 0.0006552,
      "inclination_deg": 53.0477,
      "raan_deg": 159.1229,
      "arg_perigee_deg": 338.6102,
      "mean_anomaly_deg": 21.4632,
      "mean_motion_rev_day": 15.51001139
    }
  ]
}